{
  "type": "FeatureCollection",
  "features": [
    {
      "type": "Feature",
      "properties": {
        "norad_id": 34726,
        "name": "COSMOS 2251 DEB",
        "group": "cosmos-2251-debris",
        "lat": 26.1360650302261,
        "lon": -13.69341398793412,
        "alt_km": 698.757139063564,
        "timestamp": "2025-12-16T23:36:36.593033+00:00",
        "meta_object_name": "COSMOS 2251 DEB",
        "meta_object_id": "1993-036YU",
        "meta_epoch": "2025-12-16T02:05:56.915520",
        "meta_mean_motion": 14.5949553,
        "meta_eccentricity": 0.00418666,
        "meta_inclination": 74.0287,
        "meta_ra_of_asc_node": 339.9373,
        "meta_arg_of_pericenter": 129.6944,
        "meta_mean_anomaly": 230.7925,
        "meta_ephemeris_type": 0,
        "meta_classification_type": "U",
        "meta_norad_cat_id": 34726,
        "meta_element_set_no": 999,
        "meta_rev_at_epoch": 88551,
        "meta_bstar": 0.00030944594,
        "meta_mean_motion_dot": 1.457e-05,
        "meta_mean_motion_ddot": 0,
        "tle_line1": "1 34726U 93036YU  25350.08746430  .00001457  00000+0  30945-3 0  9990",
        "tle_line2": "2 34726  74.0287 339.9373 0041866 129.6944 230.7925 14.59495530885519"
      },
      "geometry": {
        "type": "Point",
        "coordinates": [
          -13.69341398793412,
          26.1360650302261
        ]
      }
    },
    {
      "type": "Feature",
      "properties": {
        "norad_id": 34728,
        "name": "COSMOS 2251 DEB",
        "group": "cosmos-2251-debris",
        "lat": 71.12151393365583,
        "lon": -59.533911089637655,
        "alt_km": 628.7230495206795,
        "timestamp": "2025-12-16T23:36:36.593043+00:00",
        "meta_object_name": "COSMOS 2251 DEB",
        "meta_object_id": "1993-036YW",
        "meta_epoch": "2025-12-15T09:42:26.371296",
        "meta_mean_motion": 14.70875036,
        "meta_eccentricity": 0.00411739,
        "meta_inclination": 74.0173,
        "meta_ra_of_asc_node": 246.5897,
        "meta_arg_of_pericenter": 43.4858,
        "meta_mean_anomaly": 316.9547,
        "meta_ephemeris_type": 0,
        "meta_classification_type": "U",
        "meta_norad_cat_id": 34728,
        "meta_element_set_no": 999,
        "meta_rev_at_epoch": 88839,
        "meta_bstar": 0.00050694603,
        "meta_mean_motion_dot": 3.111e-05,
        "meta_mean_motion_ddot": 0,
        "tle_line1": "1 34728U 93036YW  25349.40447189  .00003111  00000+0  50695-3 0  9998",
        "tle_line2": "2 34728  74.0173 246.5897 0041173  43.4858 316.9547 14.70875036888399"
      },
      "geometry": {
        "type": "Point",
        "coordinates": [
          -59.533911089637655,
          71.12151393365583
        ]
      }
    },
    {
      "type": "Feature",
      "properties": {
        "norad_id": 34729,
        "name": "COSMOS 2251 DEB",
        "group": "cosmos-2251-debris",
        "lat": -72.85750669374572,
        "lon": -78.28093215121626,
        "alt_km": 635.2199995544725,
        "timestamp": "2025-12-16T23:36:36.593053+00:00",
        "meta_object_name": "COSMOS 2251 DEB",
        "meta_object_id": "1993-036YX",
        "meta_epoch": "2025-12-16T01:34:25.857120",
        "meta_mean_motion": 14.82896853,
        "meta_eccentricity": 0.00118196,
        "meta_inclination": 74.0178,
        "meta_ra_of_asc_node": 351.8419,
        "meta_arg_of_pericenter": 108.7967,
        "meta_mean_anomaly": 307.8347,
        "meta_ephemeris_type": 0,
        "meta_classification_type": "U",
        "meta_norad_cat_id": 34729,
        "meta_element_set_no": 999,
        "meta_rev_at_epoch": 88507,
        "meta_bstar": 0.0012502232,
        "meta_mean_motion_dot": 0.00010129,
        "meta_mean_motion_ddot": 0,
        "tle_line1": "1 34729U 93036YX  25350.06557705  .00010129  00000+0  12502-2 0  9990",
        "tle_line2": "2 34729  74.0178 351.8419 0011819 108.7967 307.8347 14.82896853885077"
      },
      "geometry": {
        "type": "Point",
        "coordinates": [
          -78.28093215121626,
          -72.85750669374572
        ]
      }
    },
    {
      "type": "Feature",
      "properties": {
        "norad_id": 34732,
        "name": "COSMOS 2251 DEB",
        "group": "cosmos-2251-debris",
        "lat": -38.410756321865705,
        "lon": 72.14631907563111,
        "alt_km": 737.6412943485511,
        "timestamp": "2025-12-16T23:36:36.593063+00:00",
        "meta_object_name": "COSMOS 2251 DEB",
        "meta_object_id": "1993-036ZA",
        "meta_epoch": "2025-12-15T16:58:38.191872",
        "meta_mean_motion": 14.47304319,
        "meta_eccentricity": 0.00403541,
        "meta_inclination": 74.0456,
        "meta_ra_of_asc_node": 87.6406,
        "meta_arg_of_pericenter": 238.1126,
        "meta_mean_anomaly": 273.699,
        "meta_ephemeris_type": 0,
        "meta_classification_type": "U",
        "meta_norad_cat_id": 34732,
        "meta_element_set_no": 999,
        "meta_rev_at_epoch": 88186,
        "meta_bstar": 0.00014575623,
        "meta_mean_motion_dot": 5.11e-06,
        "meta_mean_motion_ddot": 0,
        "tle_line1": "1 34732U 93036ZA  25349.70738648  .00000511  00000+0  14576-3 0  9998",
        "tle_line2": "2 34732  74.0456  87.6406 0040354 238.1126 273.6990 14.47304319881860"
      },
      "geometry": {
        "type": "Point",
        "coordinates": [
          72.14631907563111,
          -38.410756321865705
        ]
      }
    },
    {
      "type": "Feature",
      "properties": {
        "norad_id": 34736,
        "name": "COSMOS 2251 DEB",
        "group": "cosmos-2251-debris",
        "lat": -25.29463228315649,
        "lon": -145.30183759101098,
        "alt_km": 426.54829462223915,
        "timestamp": "2025-12-16T23:36:36.593073+00:00",
        "meta_object_name": "COSMOS 2251 DEB",
        "meta_object_id": "1993-036ZE",
        "meta_epoch": "2025-12-16T08:47:21.584256",
        "meta_mean_motion": 15.50665089,
        "meta_eccentricity": 0.00164369,
        "meta_inclination": 74.0001,
        "meta_ra_of_asc_node": 28.2634,
        "meta_arg_of_pericenter": 343.2516,
        "meta_mean_anomaly": 16.8152,
        "meta_ephemeris_type": 0,
        "meta_classification_type": "U",
        "meta_norad_cat_id": 34736,
        "meta_element_set_no": 999,
        "meta_rev_at_epoch": 88504,
        "meta_bstar": 0.0069420098,
        "meta_mean_motion_dot": 0.00422365,
        "meta_mean_motion_ddot": 0,
        "tle_line1": "1 34736U 93036ZE  25350.36622204  .00422365  00000+0  69420-2 0  9998",
        "tle_line2": "2 34736  74.0001  28.2634 0016436 343.2516  16.8152 15.50665089885049"
      },
      "geometry": {
        "type": "Point",
        "coordinates": [
          -145.30183759101098,
          -25.29463228315649
        ]
      }
    },
    {
      "type": "Feature",
      "properties": {
        "norad_id": 34738,
        "name": "COSMOS 2251 DEB",
        "group": "cosmos-2251-debris",
        "lat": -22.256875540144133,
        "lon": 128.5970759355205,
        "alt_km": 723.8120064779387,
        "timestamp": "2025-12-16T23:36:36.593083+00:00",
        "meta_object_name": "COSMOS 2251 DEB",
        "meta_object_id": "1993-036ZG",
        "meta_epoch": "2025-12-16T08:53:58.585344",
        "meta_mean_motion": 14.46311152,
        "meta_eccentricity": 0.00474322,
        "meta_inclination": 74.0147,
        "meta_ra_of_asc_node": 136.4794,
        "meta_arg_of_pericenter": 282.0601,
        "meta_mean_anomaly": 104.2814,
        "meta_ephemeris_type": 0,
        "meta_classification_type": "U",
        "meta_norad_cat_id": 34738,
        "meta_element_set_no": 999,
        "meta_rev_at_epoch": 87911,
        "meta_bstar": 0.00031793931,
        "meta_mean_motion_dot": 1.128e-05,
        "meta_mean_motion_ddot": 0,
        "tle_line1": "1 34738U 93036ZG  25350.37081696  .00001128  00000+0  31794-3 0  9999",
        "tle_line2": "2 34738  74.0147 136.4794 0047432 282.0601 104.2814 14.46311152879117"
      },
      "geometry": {
        "type": "Point",
        "coordinates": [
          128.5970759355205,
          -22.256875540144133
        ]
      }
    },
    {
      "type": "Feature",
      "properties": {
        "norad_id": 34750,
        "name": "COSMOS 2251 DEB",
        "group": "cosmos-2251-debris",
        "lat": 3.1719674061056464,
        "lon": -165.4234809912375,
        "alt_km": 712.5074206300724,
        "timestamp": "2025-12-16T23:36:36.593093+00:00",
        "meta_object_name": "COSMOS 2251 DEB",
        "meta_object_id": "1993-036ZU",
        "meta_epoch": "2025-12-16T01:19:47.144928",
        "meta_mean_motion": 14.61356163,
        "meta_eccentricity": 0.00387131,
        "meta_inclination": 74.1072,
        "meta_ra_of_asc_node": 195.4387,
        "meta_arg_of_pericenter": 147.3882,
        "meta_mean_anomaly": 14.3696,
        "meta_ephemeris_type": 0,
        "meta_classification_type": "U",
        "meta_norad_cat_id": 34750,
        "meta_element_set_no": 999,
        "meta_rev_at_epoch": 88279,
        "meta_bstar": 0.00070115939,
        "meta_mean_motion_dot": 3.475e-05,
        "meta_mean_motion_ddot": 0,
        "tle_line1": "1 34750U 93036ZU  25350.05540677  .00003475  00000+0  70116-3 0  9995",
        "tle_line2": "2 34750  74.1072 195.4387 0038713 147.3882  14.3696 14.61356163882793"
      },
      "geometry": {
        "type": "Point",
        "coordinates": [
          -165.4234809912375,
          3.1719674061056464
        ]
      }
    }
  ]
}